STARLINK-32451          
1 61857U 24202N   26067.55041006  .00001201  00000+0  53177-4 0  9999
2 61857  43.0033 244.4046 0001791 276.2147  83.8500 15.27578742 75164
FLOCK 4G-18             
1 62680U 25009BZ  26068.19114186  .00011766  00000+0  44319-3 0  9995
2 62680  97.4054 150.5008 0004100 335.7331  24.3715 15.27241676121267
